0 DELTA 1 DEB
1 21361U 75052CF  13288.27055368  .00008590  00000-0  49378-1 0  5743
2 21361 099.6244 215.7502 0741306 071.9932 075.0709 11.97941620976283
0 DELTA 1 DEB
1 21361U 75052CF  13290.27487380  .00008659  00000-0  49370-1 0  5758
2 21361 099.6228 217.2358 0744770 068.2257 078.9689 11.97980129976521
0 DELTA 1 DEB
1 21361U 75052CF  13290.74356672  .00008164  00000-0  10000-3 0  5750
2 21361 099.6209 217.5691 0731805 067.5518 300.1704 11.97980276976587
0 DELTA 1 DEB
1 21361U 75052CF  13290.75484972  .00009230  00000-0  52728-1 0  5763
2 21361 099.6249 217.5896 0743662 067.3369 348.9819 11.97994760976584
0 DELTA 1 DEB
1 21361U 75052CF  13291.75699936  .00008572  00000-0  48910-1 0  5779
2 21361 099.6219 218.3263 0744269 065.4463 351.0281 11.98006442976700
0 DELTA 1 DEB
1 21361U 75052CF  13292.76167375  .00008923  00000-0  50797-1 0  5785
2 21361 099.6216 219.0689 0745124 063.5594 004.0218 11.98026070976829
0 DELTA 1 DEB
1 21361U 75052CF  13293.75600679  .00009669  00000-0  54903-1 0  5796
2 21361 099.6230 219.8055 0746007 061.7034 332.4870 11.98045201976942
0 DELTA 1 DEB
1 21361U 75052CF  13295.76507406  .00010103  00000-0  57123-1 0  5807
2 21361 099.6224 221.2912 0747641 057.9381 357.6093 11.98085762977180
